[{"OBJECT_NAME":"STARLINK-36554","OBJECT_ID":"2026-012K","EPOCH":"2026-03-08T17:06:15.871680","MEAN_MOTION":15.27591469,"ECCENTRICITY":6.955e-5,"INCLINATION":42.9934,"RA_OF_ASC_NODE":319.8184,"ARG_OF_PERICENTER":339.2059,"MEAN_ANOMALY":20.8765,"EPHEMERIS_TYPE":0,"CLASSIFICATION_TYPE":"U","NORAD_CAT_ID":67502,"ELEMENT_SET_NO":999,"REV_AT_EPOCH":761,"BSTAR":0.0011969118,"MEAN_MOTION_DOT":0.00032833,"MEAN_MOTION_DDOT":0},{"OBJECT_NAME":"CZ-2C DEB","OBJECT_ID":"2026-009D","EPOCH":"2026-03-09T18:06:55.672992","MEAN_MOTION":15.16841441,"ECCENTRICITY":0.00999045,"INCLINATION":97.6656,"RA_OF_ASC_NODE":143.8643,"ARG_OF_PERICENTER":42.8877,"MEAN_ANOMALY":318.0091,"EPHEMERIS_TYPE":0,"CLASSIFICATION_TYPE":"U","NORAD_CAT_ID":67587,"ELEMENT_SET_NO":999,"REV_AT_EPOCH":810,"BSTAR":0.0023439167,"MEAN_MOTION_DOT":0.00052682,"MEAN_MOTION_DDOT":0}]
